
STARLINK-31963          
1 59893U 24100J   24339.37647103  .00007201  00000+0  17966-3 0  9994
2 59893  42.9984 218.3592 0001576 268.8422  91.2254 15.40670601 30605
STARLINK-31961          
1 59894U 24100K   24339.01437698  .00003995  00000+0  10285-3 0  9995
2 59894  43.0002 220.8079 0001563 268.4112  91.6565 15.40700507 30546
STARLINK-31964          
1 59895U 24100L   24339.40112117 -.00000246  00000+0  13708-5 0  9997
2 59895  43.0021 218.5496 0001940 275.5480  84.5155 15.40690315 30553
STARLINK-31905          
1 59896U 24100M   24338.96074700  .00000354  00000+0  15729-4 0  9996
2 59896  43.0020 221.2671 0001913 262.4237  97.6402 15.40709382 30537
STARLINK-31928          
1 59897U 24100N   24339.36748327  .00002774  00000+0  73548-4 0  9996
2 59897  43.0098 218.2921 0000047 282.8249  77.2602 15.40732492 30504
STARLINK-31953          
1 59898U 24100P   24339.03005286  .00000568  00000+0  20844-4 0  9991
2 59898  42.9991 220.9293 0001864 281.1234  78.9412 15.40715154 30548
STARLINK-31942          
1 59899U 24100Q   24339.39437830  .00001730  00000+0  48692-4 0  9998
2 59899  43.0055 218.4971 0003797 279.4563  80.5864 15.40707417 30597
STARLINK-31676          
1 59900U 24100R   24339.37870873  .00001073  00000+0  32962-4 0  9990
2 59900  43.0002 218.3765 0002030 282.5994  77.4636 15.40699875 30493
STARLINK-31908          
1 59901U 24100S   24339.08593900 -.00002667  00000+0 -56621-4 0  9992
2 59901  43.0030 220.4835 0001567 264.9613  95.1064 15.40687350 30546
STARLINK-31914          
1 59902U 24100T   24339.37198296  .00000988  00000+0  30942-4 0  9994
2 59902  42.9988 218.3234 0002658 268.2193  91.8359 15.40690281 30499
STARLINK-31850          
1 59903U 24100U   24339.39887471  .00002426  00000+0  65328-4 0  9992
2 59903  43.0003 218.5308 0001280 286.9498  73.1219 15.40691984 30544
STARLINK-31924          
1 59904U 24100V   24339.38990345 -.00004995  00000+0 -11231-3 0  9995
2 59904  43.0005 218.4594 0001517 271.2471  88.8211 15.40717035 30590
STARLINK-31898          
1 59905U 24100W   24339.09711691  .00002631  00000+0  70193-4 0  9995
2 59905  43.0018 220.5703 0000833 252.0696 108.0069 15.40711473 30548
STARLINK-31861          
1 59906U 24100X   24339.01662600  .00001584  00000+0  45202-4 0  9992
2 59906  42.9994 220.8222 0001203 286.5057  73.5668 15.40684237 30531
STARLINK-31920          
1 59907U 24100Y   24339.35007099  .00120198  00000+0  14839-2 0  9998
2 59907  42.9945 211.1455 0015044 242.8090 117.1239 15.58898941 30671
EARTHCARE               
1 59908U 24101A   24339.60811337  .00026461  00000+0  36592-3 0  9995
2 59908  96.9960 103.7936 0001858  96.4912 263.6555 15.57107855 29494
TIANQI 25               
1 59909U 24102A   24339.80403586  .00000425  00000+0  38147-3 0  9992
2 59909  44.9763 230.5075 0010459 118.4230 241.7658 13.98823376 26570
TIANQI 26               
1 59910U 24102B   24339.71333331  .00000444  00000+0  39440-3 0  9992
2 59910  44.9725 230.6563 0009283 121.7176 238.4562 13.98848077 26563
TIANQI 27               
1 59911U 24102C   24339.82145913  .00000428  00000+0  38368-3 0  9992
2 59911  44.9772 229.8820 0006072 131.0435 229.0923 13.98838510 26576
TIANQI 28               
1 59912U 24102D   24339.83937793  .00000429  00000+0  38451-3 0  9993
2 59912  44.9777 229.9963 0010697 129.7936 230.3839 13.98831144 26576
PAKSAT-MM1              
1 59915U 24104A   24339.52599478  .00000175  00000+0  00000+0 0  9991
2 59915   0.0114  61.9554 0003938 252.0205 347.4186  1.00273506  1914
2024-105A               
1 59917U 24105A   24339.79828201  .00006254  00000+0  36948-3 0  9990
2 59917  97.6014 344.9076 0014725   6.7626 353.3800 15.11770990 28348
2024-105B               
1 59918U 24105B   24339.80093088  .00007069  00000+0  41836-3 0  9997
2 59918  97.6010 344.9027 0014049  15.2800 344.8852 15.11664298 28355
2024-105C               
1 59919U 24105C   24339.71213893  .00009931  00000+0  56624-3 0  9997
2 59919  97.5979 344.9411 0014579  10.4663 349.6868 15.12891189 28350
2024-105D               
1 59920U 24105D   24339.82113493  .00011359  00000+0  63612-3 0  9998
2 59920  97.6048 345.2612 0014535  10.3125 349.8401 15.13502896 28373
2024-105E               
1 59921U 24105E   24339.72483252  .00008787  00000+0  50317-3 0  9990
2 59921  97.5984 344.9340 0014471  10.0002 350.1513 15.12774787 28352
STARLINK-31872          
1 59922U 24106A   24339.32391653  .00004914  00000+0  12488-3 0  9996
2 59922  43.0009  63.8667 0002408 289.5660  70.4937 15.40688328 30021
STARLINK-31972          
1 59923U 24106B   24339.60597912  .00004003  00000+0  10300-3 0  9994
2 59923  43.0000  62.5487 0001670 277.9764  82.0903 15.40709776 30084
STARLINK-31958          
1 59924U 24106C   24338.65820226  .00005640  00000+0  14234-3 0  9994
2 59924  43.0001  68.3415 0000823 264.7231  95.3531 15.40666218 29875
STARLINK-31959          
1 59925U 24106D   24339.54514509 -.00000091  00000+0  50738-5 0  9995
2 59925  43.0004  62.0728 0001131 271.5100  88.5627 15.40689639 30033
STARLINK-31957          
1 59926U 24106E   24339.30427410 -.00004327  00000+0 -96538-4 0  9998
2 59926  43.0007  64.5869 0001841 208.6023 151.4733 15.40649833 30022
STARLINK-31968          
1 59927U 24106F   24338.97562098 -.00001948  00000+0 -39402-4 0  9996
2 59927  43.0017  66.4212 0000353 284.0494  76.0323 15.40698453 29975
STARLINK-31970          
1 59928U 24106G   24339.54341883 -.00001940  00000+0 -39227-4 0  9995
2 59928  43.0003  62.9380 0002265 274.8701  85.1897 15.40663719 30066
STARLINK-31932          
1 59929U 24106H   24339.22281189  .00000430  00000+0  17541-4 0  9999
2 59929  42.9985  61.2664 0001301 315.6000  44.4752 15.40709346 30006
STARLINK-31956          
1 59930U 24106J   24339.54789449 -.00002444  00000+0 -51283-4 0  9998
2 59930  43.0026  62.9736 0003112 278.5025  81.5478 15.40667028 30018
STARLINK-31960          
1 59931U 24106K   24339.29751799  .00000464  00000+0  18363-4 0  9998
2 59931  42.9989  64.5322 0001393 249.0401 111.0307 15.40691931 29977
STARLINK-31432          
1 59932U 24106L   24339.52771409 -.00020527  00000+0 -48607-3 0  9992
2 59932  42.9974  62.8251 0003435 277.1699  82.8766 15.40654143 30019
STARLINK-31853          
1 59933U 24106M   24339.54563546  .00002127  00000+0  58181-4 0  9999
2 59933  43.0019  62.9558 0002054 286.5517  73.5114 15.40695177 30007
STARLINK-31971          
1 59934U 24106N   24339.59818457  .00003940  00000+0  10152-3 0  9998
2 59934  43.0032  58.0122 0002066 279.7956  80.2667 15.40709111 29910
STARLINK-31962          
1 59936U 24106Q   24339.52287205 -.00002689  00000+0 -57147-4 0  9991
2 59936  42.9938  62.7747 0000493 198.5823 161.5016 15.40695253 30018
STARLINK-31879          
1 59937U 24106R   24339.50945651 -.00001212  00000+0 -21778-4 0  9998
2 59937  43.0020  62.6757 0001810 276.5746  83.4904 15.40659059 30065
STARLINK-31876          
1 59938U 24106S   24339.55012675  .00000900  00000+0  28822-4 0  9993
2 59938  43.0026  62.9861 0001197 267.5912  92.4808 15.40686741 28882
STARLINK-31955          
1 59939U 24106T   24339.29302521 -.00045879  00000+0 -10975-2 0  9991
2 59939  42.9994  64.4997 0004155 262.2248  97.8137 15.40693006 30028
STARLINK-31946          
1 59940U 24106U   24339.25460157  .00007639  00000+0  19016-3 0  9995
2 59940  43.0042  64.2016 0003114 267.8909  92.1590 15.40665316 20602
STARLINK-31948          
1 59941U 24106V   24338.52313742 -.00001280  00000+0 -23382-4 0  9992
2 59941  42.9958  65.4728 0001554 255.5821 104.4863 15.40701575 29891
STARLINK-31900          
1 59942U 24106W   24339.23716820  .00000797  00000+0  26336-4 0  9998
2 59942  43.0002  64.9396 0001574 250.6973 109.3714 15.40700466 29960
STARLINK-31973          
1 59943U 24106X   24339.52997188 -.00005109  00000+0 -11521-3 0  9992
2 59943  43.0016  62.8373 0000196 224.7800 135.3041 15.40685161 30012
STARLINK-31966          
1 59944U 24106Y   24339.60151895  .00000995  00000+0  31087-4 0  9995
2 59944  42.9970  62.5085 0000293 116.1080 243.9807 15.40669445 30078
STARLINK-11145 [DTC]    
1 59945U 24107A   24339.30897644 -.00000427  00000+0  13346-5 0  9993
2 59945  53.1583   1.0945 0001383 105.2294 254.8877 15.69705141 29838
STARLINK-11121 [DTC]    
1 59946U 24107B   24339.52165327  .00000688  00000+0  82055-5 0  9995
2 59946  53.1595 358.0919 0001332 108.6465 251.4701 15.76720425 29962
STARLINK-11113 [DTC]    
1 59947U 24107C   24339.37744449  .00000240  00000+0  68385-5 0  9991
2 59947  53.1583   0.0627 0001200  87.5170 272.5986 15.69707528 29850
STARLINK-11123 [DTC]    
1 59948U 24107D   24339.36282657  .00003462  00000+0  33409-4 0  9996
2 59948  53.1572   0.7134 0000996  82.8663 277.2468 15.69716729 29901
STARLINK-11138 [DTC]    
1 59949U 24107E   24339.78889550  .00000495  00000+0  89511-5 0  9997
2 59949  53.1574 358.3826 0001216  85.9038 274.2118 15.69700865 29970
STARLINK-11130 [DTC]    
1 59950U 24107F   24339.48526872 -.00003238  00000+0 -21895-4 0  9991
2 59950  53.1584   0.0524 0001102  82.1229 277.9914 15.69695277 29866
STARLINK-11126 [DTC]    
1 59951U 24107G   24339.74025806  .00001407  00000+0  12162-4 0  9993
2 59951  53.1446 348.2968 0002174  12.0498 348.0575 15.77638424 30093
STARLINK-11124 [DTC]    
1 59952U 24107H   24339.79379890  .00000755  00000+0  11087-4 0  9994
2 59952  53.1591 358.4189 0001110  86.7558 273.3587 15.69708740 29986
STARLINK-11143 [DTC]    
1 59953U 24107J   24339.78398271 -.00009282  00000+0 -71852-4 0  9990
2 59953  53.1581 358.3516 0001387 101.7099 258.4074 15.69703687 29927
STARLINK-11133 [DTC]    
1 59954U 24107K   24339.46073757  .00008194  00000+0  72435-4 0  9992
2 59954  53.1566 359.8893 0001175  75.2694 284.8454 15.69706193 29869
